FENGYUN 1C DEB          
1 37402U 99025EFU 17345.22748281  .00002595  00000-0  65633-3 0  9992
2 37402  99.3717 345.1033 0029163  15.5514 344.6567 14.51722402216210
